OBJECT_NAME,OBJECT_ID,EPOCH,MEAN_MOTION,ECCENTRICITY,INCLINATION,RA_OF_ASC_NODE,ARG_OF_PERICENTER,MEAN_ANOMALY,EPHEMERIS_TYPE,CLASSIFICATION_TYPE,NORAD_CAT_ID,ELEMENT_SET_NO,REV_AT_EPOCH,BSTAR,MEAN_MOTION_DOT,MEAN_MOTION_DDOT
SKY MUSTER 2 (NBN1B),2016-060B,2026-06-14T18:55:42.705408,1.00270335,.00012796,0.0169,327.8167,110.1865,253.8137,0,U,41794,999,3549,0,-.238E-5,0
HIMAWARI-9,2016-064A,2026-06-15T12:01:07.519008,1.00269576,.0000823,0.0517,143.8920,356.8486,84.0898,0,U,41836,999,3519,0,-.272E-5,0
SHIJIAN-17 (SJ-17),2016-065A,2026-06-15T12:16:38.098848,0.99854104,.0001726,5.7488,72.6246,28.5772,225.0539,0,U,41838,999,3518,0,.61E-6,0
GOES 16,2016-071A,2026-06-15T10:27:20.495232,1.00270900,.0000202,0.3367,85.5294,301.4500,288.8852,0,U,41866,999,3508,0,-.88E-6,0
TIANLIAN 1-04,2016-072A,2026-06-15T13:45:03.720672,1.00271127,.0042293,0.8637,82.9278,89.8338,114.1434,0,U,41869,999,3528,0,.32E-6,0
WGS F8 (USA 272),2016-075A,2026-06-15T12:28:38.731008,1.00266579,.0000106,0.0410,47.9908,306.9447,245.8447,0,U,41879,999,3480,0,0,0
FENGYUN 4A,2016-077A,2026-06-15T09:36:38.659680,1.00269450,.00087,2.3171,80.2990,153.1806,298.1396,0,U,41882,999,3491,0,-.355E-5,0
ECHOSTAR 19,2016-079A,2026-06-15T10:53:15.499968,1.00271051,.0001107,0.0162,16.4510,69.3501,244.1500,0,U,41893,999,3468,0,-.136E-5,0
JCSAT-110A (JCSAT-15),2016-082A,2026-06-15T11:52:18.820128,1.00269730,.0000331,0.0172,0.4894,100.8078,90.6246,0,U,41903,999,3474,0,-.348E-5,0
STAR ONE D1,2016-082B,2026-06-15T10:57:00.143424,1.00271387,.0002307,0.0186,47.9723,48.4033,247.6241,0,U,41904,999,3475,0,-.208E-5,0
TJS-2,2017-001A,2026-06-15T09:57:19.435392,1.00273154,.000049,0.8291,85.3489,48.9106,345.3496,0,U,41911,999,3470,0,-.5E-7,0
SBIRS GEO-4 (USA 273),2017-004A,2026-06-15T08:01:33.698784,1.00271438,.0001873,2.2398,43.2335,33.6558,328.0203,0,U,41937,999,3457,0,.125E-5,0
HISPASAT 36W-1,2017-006A,2026-06-15T09:27:59.747328,1.00270353,.0001007,0.0112,295.6817,146.7911,287.2118,0,U,41942,999,3422,0,-.241E-5,0
TELKOM 3S,2017-007A,2026-06-15T06:46:40.625760,1.00271555,.0002025,0.0149,56.0271,23.6857,43.5332,0,U,41944,999,3412,0,-.359E-5,0
INTELSAT 32E (IS-32E),2017-007B,2026-06-15T11:08:44.018304,1.00266766,.0001175,0.0089,318.9259,8.2894,60.5429,0,U,41945,999,3420,0,-.266E-5,0
ECHOSTAR 23,2017-014A,2026-06-15T08:12:01.800000,1.00271052,.0002061,0.0171,354.9893,87.6193,194.1317,0,U,42070,999,3390,0,-.54E-6,0
WGS F9 (USA 275),2017-016A,2026-06-15T07:52:12.097056,1.00271079,.0000343,0.0198,329.1246,327.1380,73.3930,0,U,42075,999,3387,0,-.93E-6,0
SES-10,2017-017A,2026-06-15T09:19:15.582720,1.00272352,.0002697,0.0187,27.5803,65.4399,243.5784,0,U,42432,999,3373,0,-.27E-5,0
CHINASAT 16 (SJ-13),2017-018A,2026-06-15T15:04:22.183392,1.00275989,.0003981,0.0975,90.4396,143.7713,6.3285,0,U,42662,999,3373,0,-.35E-5,0
KOREASAT 7,2017-023A,2026-06-15T10:11:25.580832,1.00271489,.0000771,0.0262,21.1986,64.5420,86.7233,0,U,42691,999,3335,0,-.359E-5,0
SGDC,2017-023B,2026-06-14T11:28:24.512736,1.00271564,.00024493,0.0452,77.1488,15.1157,267.7661,0,U,42692,999,3338,0,-.242E-5,0
GSAT-9,2017-024A,2026-06-15T10:06:03.597408,1.00269870,.0002572,0.0047,39.3404,42.7484,70.4778,0,U,42695,999,3328,0,-.283E-5,0
INMARSAT 5-F4,2017-025A,2026-06-15T09:54:19.720800,1.00269195,.0000851,0.0182,16.3027,345.7286,106.7272,0,U,42698,999,3326,0,.79E-6,0
SES-15,2017-026A,2026-06-15T11:30:38.824128,1.00268059,.0000442,0.0208,331.5252,57.0607,278.6666,0,U,42709,999,741,0,.63E-6,0
QZS-2 (MICHIBIKI-2),2017-028A,2026-06-15T12:28:38.731008,1.00284423,.0760514,39.4302,243.1796,269.2356,80.1810,0,U,42738,999,760,0,-.144E-5,0
VIASAT-2,2017-029A,2026-06-15T06:45:38.797056,1.00271133,.0000231,0.0163,300.2829,23.4675,331.3379,0,U,42740,999,3318,0,-.262E-5,0
EUTELSAT 172B,2017-029B,2026-06-15T12:12:38.850336,1.00270163,.0000281,0.0101,82.2973,140.4250,36.2586,0,U,42741,999,3372,0,-.3E-7,0
GSAT-19,2017-031A,2026-06-15T11:34:42.028032,1.00274001,.0007078,0.0429,265.7665,160.8476,58.6995,0,U,42747,999,3313,0,.128E-5,0
ECHOSTAR 21,2017-032A,2026-06-15T07:58:33.986784,1.00272619,.0002024,1.7712,355.6027,96.3432,301.5859,0,U,42749,999,3308,0,.69E-6,0
BULGARIASAT-1,2017-038A,2026-06-15T09:38:51.205056,1.00273666,.0003161,0.0176,356.6729,100.5227,313.1152,0,U,42801,999,3282,0,.15E-6,0
HELLAS-SAT 3,2017-040A,2026-06-15T11:32:04.780032,1.00270272,.0004701,0.0451,40.5179,11.8870,63.3611,0,U,42814,999,3279,0,.155E-5,0
GSAT-17,2017-040B,2026-06-15T10:04:56.205408,1.00268828,.00021,0.0201,359.4044,306.1870,202.8463,0,U,42815,999,3277,0,0,0
