SKY MUSTER 2 (NBN1B)    
1 41794U 16060B   26165.78868872 -.00000238  00000+0  00000+0 0  9994
2 41794   0.0169 327.8167 0001279 110.1865 253.8137  1.00270335 35499
HIMAWARI-9              
1 41836U 16064A   26166.50078147 -.00000272  00000+0  00000+0 0  9992
2 41836   0.0517 143.8920 0000823 356.8486  84.0898  1.00269576 35198
SHIJIAN-17 (SJ-17)      
1 41838U 16065A   26166.51155207  .00000061  00000+0  00000+0 0  9994
2 41838   5.7488  72.6246 0001726  28.5772 225.0539  0.99854104 35185
GOES 16                 
1 41866U 16071A   26166.43565388 -.00000088  00000+0  00000+0 0  9998
2 41866   0.3367  85.5294 0000202 301.4500 288.8852  1.00270900 35082
TIANLIAN 1-04           
1 41869U 16072A   26166.57295973  .00000032  00000+0  00000+0 0  9995
2 41869   0.8637  82.9278 0042293  89.8338 114.1434  1.00271127 35286
WGS F8 (USA 272)        
1 41879U 16075A   26166.51989272  .00000000  00000+0  00000+0 0  9990
2 41879   0.0410  47.9908 0000106 306.9447 245.8447  1.00266579 34808
FENGYUN 4A              
1 41882U 16077A   26166.40044745 -.00000355  00000+0  00000+0 0  9995
2 41882   2.3171  80.2990 0008700 153.1806 298.1396  1.00269450 34918
ECHOSTAR 19             
1 41893U 16079A   26166.45365162 -.00000136  00000+0  00000+0 0  9990
2 41893   0.0162  16.4510 0001107  69.3501 244.1500  1.00271051 34680
JCSAT-110A (JCSAT-15)   
1 41903U 16082A   26166.49466227 -.00000348  00000+0  00000+0 0  9999
2 41903   0.0172   0.4894 0000331 100.8078  90.6246  1.00269730 34748
STAR ONE D1             
1 41904U 16082B   26166.45625166 -.00000208  00000+0  00000+0 0  9990
2 41904   0.0186  47.9723 0002307  48.4033 247.6241  1.00271387 34755
TJS-2                   
1 41911U 17001A   26166.41480828 -.00000005  00000+0  00000+0 0  9995
2 41911   0.8291  85.3489 0000490  48.9106 345.3496  1.00273154 34707
SBIRS GEO-4 (USA 273)   
1 41937U 17004A   26166.33441781  .00000125  00000+0  00000+0 0  9994
2 41937   2.2398  43.2335 0001873  33.6558 328.0203  1.00271438 34572
HISPASAT 36W-1          
1 41942U 17006A   26166.39444152 -.00000241  00000+0  00000+0 0  9993
2 41942   0.0112 295.6817 0001007 146.7911 287.2118  1.00270353 34222
TELKOM 3S               
1 41944U 17007A   26166.28241465 -.00000359  00000+0  00000+0 0  9996
2 41944   0.0149  56.0271 0002025  23.6857  43.5332  1.00271555 34125
INTELSAT 32E (IS-32E)   
1 41945U 17007B   26166.46439836 -.00000266  00000+0  00000+0 0  9995
2 41945   0.0089 318.9259 0001175   8.2894  60.5429  1.00266766 34203
ECHOSTAR 23             
1 42070U 17014A   26166.34168750 -.00000054  00000+0  00000+0 0  9999
2 42070   0.0171 354.9893 0002061  87.6193 194.1317  1.00271052 33907
WGS F9 (USA 275)        
1 42075U 17016A   26166.32791779 -.00000093  00000+0  00000+0 0  9990
2 42075   0.0198 329.1246 0000343 327.1380  73.3930  1.00271079 33872
SES-10                  
1 42432U 17017A   26166.38837480 -.00000270  00000+0  00000+0 0  9991
2 42432   0.0187  27.5803 0002697  65.4399 243.5784  1.00272352 33739
CHINASAT 16 (SJ-13)     
1 42662U 17018A   26166.62803453 -.00000350  00000+0  00000+0 0  9996
2 42662   0.0975  90.4396 0003981 143.7713   6.3285  1.00275989 33732
KOREASAT 7              
1 42691U 17023A   26166.42460163 -.00000359  00000+0  00000+0 0  9998
2 42691   0.0262  21.1986 0000771  64.5420  86.7233  1.00271489 33352
SGDC                    
1 42692U 17023B   26165.47806149 -.00000242  00000+0  00000+0 0  9992
2 42692   0.0452  77.1488 0002449  15.1157 267.7661  1.00271564 33388
GSAT-9                  
1 42695U 17024A   26166.42087497 -.00000283  00000+0  00000+0 0  9994
2 42695   0.0047  39.3404 0002572  42.7484  70.4778  1.00269870 33289
INMARSAT 5-F4           
1 42698U 17025A   26166.41272825  .00000079  00000+0  00000+0 0  9990
2 42698   0.0182  16.3027 0000851 345.7286 106.7272  1.00269195 33262
SES-15                  
1 42709U 17026A   26166.47961602  .00000063  00000+0  00000+0 0  9991
2 42709   0.0208 331.5252 0000442  57.0607 278.6666  1.00268059  7414
QZS-2 (MICHIBIKI-2)     
1 42738U 17028A   26166.51989272 -.00000144  00000+0  00000+0 0  9994
2 42738  39.4302 243.1796 0760514 269.2356  80.1810  1.00284423  7600
VIASAT-2                
1 42740U 17029A   26166.28169904 -.00000262  00000+0  00000+0 0  9995
2 42740   0.0163 300.2829 0000231  23.4675 331.3379  1.00271133 33188
EUTELSAT 172B           
1 42741U 17029B   26166.50878299 -.00000003  00000+0  00000+0 0  9998
2 42741   0.0101  82.2973 0000281 140.4250  36.2586  1.00270163 33725
GSAT-19                 
1 42747U 17031A   26166.48243088  .00000128  00000+0  00000+0 0  9993
2 42747   0.0429 265.7665 0007078 160.8476  58.6995  1.00274001 33139
ECHOSTAR 21             
1 42749U 17032A   26166.33233781  .00000069  00000+0  00000+0 0  9993
2 42749   1.7712 355.6027 0002024  96.3432 301.5859  1.00272619 33082
BULGARIASAT-1           
1 42801U 17038A   26166.40198154  .00000015  00000+0  00000+0 0  9991
2 42801   0.0176 356.6729 0003161 100.5227 313.1152  1.00273666 32829
HELLAS-SAT 3            
1 42814U 17040A   26166.48061088  .00000155  00000+0  00000+0 0  9996
2 42814   0.0451  40.5179 0004701  11.8870  63.3611  1.00270272 32796
GSAT-17                 
1 42815U 17040B   26166.42009497  .00000000  00000+0  00000+0 0  9996
2 42815   0.0201 359.4044 0002100 306.1870 202.8463  1.00268828 32771
